STARLINK-36318          
1 68048U 26041J   26073.50002315 -.00449965  00000+0 -23751-2 0  9991
2 68048  53.1586  37.9654 0000620 132.7561  95.5878 15.81072020  3149
STARLINK-36885          
1 68049U 26041K   26073.50002315 -.02053693  00000+0 -11899-1 0  9992
2 68049  53.1587  37.9478 0001097 107.6242 129.2706 15.81173509  3140
STARLINK-36945          
1 68050U 26041L   26073.50002315 -.00035110  00000+0 -17463-3 0  9991
2 68050  53.1587  37.9566 0001133  84.7402 147.9047 15.80926050  3145
STARLINK-35911          
1 68051U 26041M   26073.50002315 -.00291961  00000+0 -15157-2 0  9997
2 68051  53.1589  37.9392 0001113  73.9168 167.2630 15.81021194  3118
STARLINK-35808          
1 68052U 26041N   26073.50002315  .00053137  00000+0  27085-3 0  9991
2 68052  53.1587  37.9296 0001142  65.6934 179.7753 15.80893434  3118
STARLINK-36919          
1 68053U 26041P   26073.50002315 -.00009233  00000+0 -43216-4 0  9997
2 68053  53.1589  37.9206 0001081  83.0855 166.6541 15.80907210  3152
STARLINK-36924          
1 68054U 26041Q   26073.50002315 -.01597306  00000+0 -90501-2 0  9999
2 68054  53.1587  37.9039 0000905 107.5003 150.7210 15.81352409  3158
STARLINK-35998          
1 68055U 26041R   26073.50002315 -.00286799  00000+0 -14858-2 0  9991
2 68055  53.1589  37.9122 0001217  88.4094 165.5291 15.81050977  3112
STARLINK-36845          
1 68056U 26041S   26073.50002315 -.00193125  00000+0 -99202-3 0  9999
2 68056  53.1590  37.8945 0000464 119.3520 143.1838 15.80981144  3159
STARLINK-36954          
1 68057U 26041T   26073.50002315 -.02017409  00000+0 -12143-1 0  9999
2 68057  53.1590  37.8859 0001151  83.4565 183.1840 15.80291633  3152
STARLINK-36899          
1 68058U 26041U   26073.50002315 -.00227431  00000+0 -11727-2 0  9994
2 68058  53.1591  37.8768 0000751  48.7871 222.2953 15.80995524  3152
STARLINK-36917          
1 68059U 26041V   26073.50002315 -.00153555  00000+0 -78470-3 0  9999
2 68059  53.1591  37.8682 0000887  91.9076 183.4457 15.80972834  3151
